ISS OBJECT XY           
1 66912U 98067XY  26073.94811659  .00114837  00000+0  11444-2 0  9994
2 66912  51.6268  40.5165 0003436 120.1038 240.0298 15.64801890 15975
KNACKSAT-2              
1 67683U 98067XZ  26074.20054093  .00047534  00000+0  76829-3 0  9999
2 67683  51.6309  44.4573 0009578 205.3064 154.7457 15.52323412  5648
GXIBA-1                 
1 67684U 98067YA  26074.16359621  .00089870  00000+0  12893-2 0  9999
2 67684  51.6308  44.2101 0011613 194.5368 165.5291 15.55303960  5647
CORAL                   
1 67685U 98067YB  26074.19471975  .00051896  00000+0  82451-3 0  9995
2 67685  51.6319  44.4177 0011534 201.7026 158.3476 15.52739690  5644
ISS OBJECT YC           
1 67686U 98067YC  26074.18708647  .00062587  00000+0  96936-3 0  9996
2 67686  51.6317  44.3691 0008363 170.9974 189.1167 15.53399872  5642
LEOPARD                 
1 67687U 98067YD  26074.26189947  .00047430  00000+0  76143-3 0  9990
2 67687  51.6313  44.1193 0008142 174.4595 185.6486 15.52527164  5570
ISS OBJECT YE           
1 67688U 98067YE  26074.19056187  .00057311  00000+0  89873-3 0  9995
2 67688  51.6315  44.3921 0008255 171.8524 188.2602 15.53094941  5563
CREW DRAGON 12          
1 67796U 26031A   26074.19246378  .00009711  00000+0  18872-3 0  9992
2 67796  51.6330  45.1519 0006363 192.7288 167.3540 15.48288531557081
